satname,norad_id,inclination_deg,eccentricity,mean_motion_rev_per_day,perigee_km,apogee_km,l1,l2
STARLINK-1168,45072,53.054,0.0001284,15.06427237,546.2388776773987,548.017285750383,1 45072U 20006AE  25293.00527243  .00015249  00000+0  10396-2 0  9991,2 45072  53.0540 178.1803 0001284  81.6148 278.4986 15.06427237315536
STARLINK-1172,45074,53.0552,0.0001637,15.06428672,545.9900186076566,548.257348955527,1 45074U 20006AG  25293.08267433  .00012773  00000+0  87419-3 0  9993,2 45074  53.0552 177.8309 0001637  79.4701 280.6472 15.06428672315540
STARLINK-1153,45080,53.0529,0.0001184,15.0642829,546.3049035161075,547.9448055232579,1 45080U 20006AN  25293.06056001  .00017348  00000+0  11798-2 0  9994,2 45080  53.0529 177.9285 0001184  79.0980 281.0142 15.06428290315542
STARLINK-1151,45081,53.055,0.0001645,15.06373677,546.1530022076668,548.4314684260853,1 45081U 20006AP  25293.37755957  .00006674  00000+0  46687-3 0  9991,2 45081  53.0550 176.5791 0001645  76.5921 283.5251 15.06373677315594
STARLINK-1190,45083,53.0421,0.0005143,15.84380829,314.6248807589209,321.5125979824379,1 45083U 20006AR  25293.66671296  .00236804  00000+0  99273-3 0  9997,2 45083  53.0421 132.2543 0005143 162.5083  40.1144 15.84380829  5956
STARLINK-1173,45084,53.0357,0.0004111,16.06097761,254.8418887751941,260.297766929054,1 45084U 20006AS  25293.83048961  .00679232  24069-3  90381-3 0  9996,2 45084  53.0357  92.2134 0004111 331.0071  29.0732 16.06097761316814
STARLINK-1185,45087,53.0523,0.0001451,15.0639787,546.2132170662017,548.2229551121836,1 45087U 20006AV  25293.35359653  .00001862  00000+0  14388-3 0  9995,2 45087  53.0523 156.6101 0001451  88.1170 271.9985 15.06397870315871
STARLINK-1183,45088,53.0529,0.0001402,15.0647286,546.0173589704918,547.9591640938252,1 45088U 20006AW  25293.04395499  .00027528  00000+0  18561-2 0  9993,2 45088  53.0529 158.0029 0001402  89.2681 270.8468 15.06472860315820
STARLINK-1176,45090,53.0413,0.0005651,16.01013332,267.85355700480886,275.36910256713327,1 45090U 20006AY  25293.61333434  .00570165  15657-3  10284-2 0  9992,2 45090  53.0413  91.7907 0005651 335.9540  24.1225 16.01013332316809
STARLINK-1142,45093,53.0338,0.0002086,15.57631649,393.100748157809,395.92629795602716,1 45093U 20006BB  25293.66671296  .00126771  00000+0  16644-2 0  9999,2 45093  53.0338  92.5950 0002086 237.4970 335.6021 15.57631649  5881
STARLINK-1152,45096,53.0484,0.0009056,15.23017081,490.5203231502355,502.9721116335759,1 45096U 20006BE  25293.57039216  .00027469  00000+0  11612-2 0  9996,2 45096  53.0484 139.1602 0009056 128.8688 231.3117 15.23017081316133
STARLINK-1184,45098,53.0537,0.0001346,15.06402033,546.273176015864,548.137478170318,1 45098U 20006BG  25292.92601869  .00006180  00000+0  43340-3 0  9996,2 45098  53.0537 158.5316 0001346  90.6701 269.4442 15.06402033315809
STARLINK-1193,45100,53.0522,0.0001068,15.06405603,546.4547602115017,547.9340109954665,1 45100U 20006BJ  25293.65215019  .00000178  00000+0  30844-4 0  9996,2 45100  53.0522 155.2699 0001068  78.8753 281.2356 15.06405603315915
STARLINK-1143,45179,53.0535,0.0007785,15.38929468,443.9585980878737,454.58887660592245,1 45179U 20012B   25293.28823691  .00109599  00000+0  27703-2 0  9994,2 45179  53.0535 283.2345 0007785   4.6313 355.4761 15.38929468314150
STARLINK-1202,45183,53.0539,0.0001362,15.06384292,546.3164620835641,548.2029401449481,1 45183U 20012F   25293.38308700  .00000647  00000+0  62342-4 0  9993,2 45183  53.0539 316.4817 0001362  92.5620 267.5525 15.06384292313698
STARLINK-1216,45185,53.0544,0.0001592,15.06409086,546.0811997397104,548.2862218540276,1 45185U 20012H   25293.37569381 -.00000067  00000+0  14369-4 0  9991,2 45185  53.0544 316.5127 0001592  87.8750 272.2421 15.06409086313638
STARLINK-1225,45187,53.0529,8.86e-05,15.06377093,546.6681733811165,547.8953575863598,1 45187U 20012K   25293.39414228  .00001045  00000+0  89058-4 0  9997,2 45187  53.0529 316.4298 0000886 106.3372 253.7714 15.06377093313689
STARLINK-1230,45189,53.0542,0.0001423,15.06381666,546.2822644817443,548.2532346734752,1 45189U 20012M   25293.33147940 -.00004905  00000+0 -31079-3 0  9996,2 45189  53.0542 316.7138 0001423  81.0531 279.0619 15.06381666310904
STARLINK-1234,45190,53.0536,0.0001079,15.29442573,476.7378223739788,478.2172639923974,1 45190U 20012N   25293.66671296  .00071109  00000+0  24464-2 0  9997,2 45190  53.0536 274.3180 0001079  87.5867 289.1222 15.29442573  5740
STARLINK-1269,45197,53.0579,0.0001824,15.06386343,545.9902237808428,548.5166062042317,1 45197U 20012V   25293.34253961 -.00002823  00000+0 -17073-3 0  9992,2 45197  53.0579 316.6638 0001824 112.2511 247.8672 15.06386343313651
STARLINK-1154,45198,53.0561,0.0001748,15.06387894,546.0381039195736,548.4592187467752,1 45198U 20012W   25293.33333198  .00000257  00000+0  36139-4 0  9995,2 45198  53.0561 296.7039 0001748  98.2598 261.8589 15.06387894313902
STARLINK-1199,45201,53.0545,0.0001508,15.06378616,546.232745147804,548.321450039637,1 45201U 20012Z   25293.27805501 -.00001272  00000+0 -66561-4 0  9997,2 45201  53.0545 296.9517 0001508  85.9857 274.1305 15.06378616313957
STARLINK-1209,45206,53.0555,0.0001199,15.25480766,488.51875435796865,490.1655758617626,1 45206U 20012AE  25293.66671296  .01731844  00000+0  61763-1 0  9997,2 45206  53.0555 274.5781 0001199  68.6936 155.1399 15.25480766  5758
STARLINK-1210,45207,53.0268,0.0013003,15.53494259,397.71106100432644,415.355274242248,1 45207U 20012AF  25293.57792912  .00135670  00000+0  20650-2 0  9992,2 45207  53.0268 239.2517 0013003  20.8315 339.3222 15.53494259314794
STARLINK-1231,45212,53.0506,0.0004999,15.11339733,528.6588043714182,535.5676725598369,1 45212U 20012AL  25293.33386400  .00053697  00000+0  31420-2 0  9998,2 45212  53.0506 295.4627 0004999 356.8172   3.2787 15.11339733313935
STARLINK-1271,45217,53.0537,0.0001347,15.06399026,546.2816982567474,548.1473879624609,1 45217U 20012AR  25293.32965227  .00000030  00000+0  20932-4 0  9993,2 45217  53.0537 296.7214 0001347  94.3382 265.7761 15.06399026313966
STARLINK-1191,45222,53.0534,0.0001518,15.06388022,546.1969955425448,548.2995425102217,1 45222U 20012AW  25293.27250357 -.00000998  00000+0 -48120-4 0  9998,2 45222  53.0534 276.9749 0001518  86.5689 273.5474 15.06388022314238
STARLINK-1212,45223,53.0533,0.0001514,15.06387614,546.2010159854217,548.298023023528,1 45223U 20012AX  25293.22466595 -.00003896  00000+0 -24286-3 0  9993,2 45223  53.0533 277.8471 0001514  87.1065 273.0098 15.06387614314223
STARLINK-1215,45225,53.0556,0.0001464,15.06414464,546.1533636771646,548.181092755186,1 45225U 20012AZ  25293.18033263  .00002644  00000+0  19625-3 0  9991,2 45225  53.0556 277.3871 0001464  94.5725 265.5432 15.06414464314174
STARLINK-1221,45227,53.0677,0.0001613,15.36297448,455.96691135495894,458.1719489493262,1 45227U 20012BB  25293.06687357  .00025710  00000+0  72435-3 0  9996,2 45227  53.0677 213.1357 0001613 309.3923  50.6936 15.36297448315054
STARLINK-1222,45228,53.0555,0.0001493,15.06388974,546.2113916613253,548.2793108314063,1 45228U 20012BC  25293.27988766  .00000520  00000+0  53817-4 0  9994,2 45228  53.0555 276.9434 0001493  78.9516 281.1641 15.06388974314129
STARLINK-1226,45229,53.0547,0.0001488,15.06398521,546.1855983240512,548.246583403893,1 45229U 20012BD  25293.24303467  .00001183  00000+0  98306-4 0  9999,2 45229  53.0547 277.1065 0001488  94.2016 265.9143 15.06398521314120
STARLINK-1227,45230,53.0549,0.0001394,15.0639232,546.2696992619576,548.2004930023586,1 45230U 20012BE  25293.23934430  .00000319  00000+0  40340-4 0  9995,2 45230  53.0549 277.1238 0001394  93.2876 266.8272 15.06392320314242
STARLINK-1246,45235,53.0546,0.0001231,15.06387203,546.3982639422111,548.103294413444,1 45235U 20012BK  25293.38677099 -.00000113  00000+0  11294-4 0  9990,2 45235  53.0546 316.4628 0001231  96.3075 263.8055 15.06387203313710
STARLINK-1270,45237,53.0537,0.0001459,15.06382199,546.2556996620988,548.276532291341,1 45237U 20012BM  25293.25776885 -.00000271  00000+0  69980-6 0  9993,2 45237  53.0537 277.0428 0001459  86.8990 273.2166 15.06382199314239
STARLINK-1279,45360,53.0537,9.65e-05,15.25830664,487.6296308098881,488.954851653446,1 45360U 20019A   25293.66671296  .01808203  00000+0  63558-1 0  9993,2 45360  53.0537  44.5667 0000965  71.4959 181.9236 15.25830664  5702
STARLINK-1301,45361,53.0553,0.0001491,15.27475028,482.340388256649,484.38648768725216,1 45361U 20019B   25293.66671296  .01732915  00000+0  57285-1 0  9990,2 45361  53.0553  54.4535 0001491  89.5074 286.9185 15.27475028  5742
STARLINK-1306,45362,53.0478,0.0005659,15.65716108,367.3605897656871,374.99946677828484,1 45362U 20019C   25293.66671296  .00134041  00000+0  12854-2 0  9990,2 45362  53.0478  47.2564 0005659 238.5538  18.9118 15.65716108  5953
STARLINK-1262,45366,53.0546,0.0001237,15.06406212,546.3358558568816,548.049182379912,1 45366U 20019G   25293.56737694 -.00004718  00000+0 -29798-3 0  9993,2 45366  53.0546  75.6479 0001237  92.8055 267.3076 15.06406212308615
STARLINK-1273,45367,53.054,0.0001182,15.06395207,546.4076698960152,548.0448257678026,1 45367U 20019H   25293.65584897 -.00000001  00000+0  18790-4 0  9990,2 45367  53.0540  75.2530 0001182  81.3547 278.7576 15.06395207308625
STARLINK-1276,45368,53.0534,0.0001211,15.06414254,546.329217405726,548.0065262456828,1 45368U 20019J   25292.69748558  .00004068  00000+0  29174-3 0  9993,2 45368  53.0534  79.5572 0001211  87.6037 272.5091 15.06414254308480
STARLINK-1277,45369,53.0543,0.000185,15.06395824,545.9431649553826,548.505548657401,1 45369U 20019K   25293.61905981 -.00004332  00000+0 -27213-3 0  9990,2 45369  53.0543  76.0472 0001850  93.6173 266.5028 15.06395824308618
STARLINK-1281,45370,53.0549,0.0001394,15.06391007,546.2737228939941,548.2045177563396,1 45370U 20019L   25293.61529286 -.00001968  00000+0 -11329-3 0  9995,2 45370  53.0549  75.4355 0001394  93.0448 267.0701 15.06391007308625
